NORAD_CAT_ID,OBJECT_NAME,OBJECT_TYPE,EPOCH,MEAN_MOTION,ECCENTRICITY,INCLINATION,RA_OF_ASC_NODE,ARG_OF_PERICENTER,MEAN_ANOMALY,BSTAR,MEAN_MOTION_DOT,MEAN_MOTION_DDOT,TLE_LINE0,TLE_LINE1,TLE_LINE2,SEMIMAJOR_AXIS,PERIOD,APOGEE,PERIGEE,DECAYED
49444.0,STARLINK-3126,PAYLOAD,2024-02-25 22:21:35,15.08862336,0.0001591,53.2184,303.5008,104.1493,255.9676,0.00021157,3.083e-05,0.0,0 STARLINK-3126,1 49444U 21104AN  24056.93166179  .00003083  00000-0  21157-3 0  9995,2 49444  53.2184 303.5008 0001591 104.1493 255.9676 15.08862336126783,6917.812,95.436,540.778,538.576,0.0
49444.0,STARLINK-3126,PAYLOAD,2024-02-26 01:32:21,15.08862011,0.0001551,53.2183,302.9051,102.1259,257.9907,0.00031812,4.782e-05,0.0,0 STARLINK-3126,1 49444U 21104AN  24057.06413990  .00004782  00000-0  31812-3 0  9992,2 49444  53.2183 302.9051 0001551 102.1259 257.9907 15.08862011127877,6917.813,95.436,540.751,538.605,0.0
49444.0,STARLINK-3126,PAYLOAD,2024-02-26 15:50:52,15.08829533,0.0001867,53.2161,300.2315,80.2699,279.8503,-8.9392e-05,-1.71e-05,0.0,0 STARLINK-3126,1 49444U 21104AN  24057.66032423 -.00001710  00000-0 -89392-4 0  9993,2 49444  53.2161 300.2315 0001867  80.2699 279.8503 15.08829533127968,6917.912,95.438,541.069,538.486,0.0
49444.0,STARLINK-3126,PAYLOAD,2024-02-26 22:12:24,15.08827606,0.0001459,53.2167,299.0398,88.5377,271.5782,-0.00021591,-3.721e-05,0.0,0 STARLINK-3126,1 49444U 21104AN  24057.92528702 -.00003721  00000-0 -21591-3 0  9992,2 49444  53.2167 299.0398 0001459  88.5377 271.5782 15.08827606126934,6917.918,95.438,540.793,538.774,0.0
49444.0,STARLINK-3126,PAYLOAD,2024-02-27 09:20:06,15.08828923,0.0001203,53.216,296.9588,77.0609,283.0518,-4.9489e-05,-1.075e-05,0.0,0 STARLINK-3126,1 49444U 21104AN  24058.38896807 -.00001075  00000-0 -49489-4 0  9994,2 49444  53.2160 296.9588 0001203  77.0609 283.0518 15.08828923127009,6917.914,95.438,540.611,538.947,0.0
49444.0,STARLINK-3126,PAYLOAD,2024-02-27 20:27:48,15.08839433,0.0001364,53.2156,294.8762,74.8681,285.2462,0.00024318,3.584e-05,0.0,0 STARLINK-3126,1 49444U 21104AN  24058.85264842  .00003584  00000-0  24318-3 0  9992,2 49444  53.2156 294.8762 0001364  74.8681 285.2462 15.08839433128144,6917.882,95.438,540.691,538.804,0.0
49444.0,STARLINK-3126,PAYLOAD,2024-02-27 22:03:12,15.08837272,0.0001326,53.2154,294.5795,69.3499,290.7636,0.00043047,6.569e-05,0.0,0 STARLINK-3126,1 49444U 21104AN  24058.91889122  .00006569  00000-0  43047-3 0  9999,2 49444  53.2154 294.5795 0001326  69.3499 290.7636 15.08837272127084,6917.889,95.438,540.671,538.836,0.0
49444.0,STARLINK-3126,PAYLOAD,2024-02-28 21:53:59,15.08855332,0.0001458,53.2149,290.1183,70.1057,290.0092,0.0005987,9.257e-05,0.0,0 STARLINK-3126,1 49444U 21104AN  24059.91248900  .00009257  00000-0  59870-3 0  9991,2 49444  53.2149 290.1183 0001458  70.1057 290.0092 15.08855332127230,6917.834,95.437,540.707,538.69,0.0
49444.0,STARLINK-3126,PAYLOAD,2024-02-29 01:04:45,15.0885892,0.0001412,53.2152,289.5238,68.4086,291.7057,0.00066551,0.00010325,0.0,0 STARLINK-3126,1 49444U 21104AN  24060.04496742  .00010325  00000-0  66551-3 0  9998,2 49444  53.2152 289.5238 0001412  68.4086 291.7057 15.08858920128325,6917.823,95.436,540.664,538.711,0.0
49444.0,STARLINK-3126,PAYLOAD,2024-02-29 15:23:13,15.08848722,0.0001518,53.2154,286.8469,71.1372,288.9784,0.00029808,4.46e-05,0.0,0 STARLINK-3126,1 49444U 21104AN  24060.64112807  .00004460  00000-0  29808-3 0  9998,2 49444  53.2154 286.8469 0001518  71.1372 288.9784 15.08848722127344,6917.854,95.437,540.769,538.669,0.0
49444.0,STARLINK-3126,PAYLOAD,2024-02-29 21:44:45,15.08847691,0.0001548,53.2164,285.6568,78.6941,281.4225,0.00015191,2.131e-05,0.0,0 STARLINK-3126,1 49444U 21104AN  24060.90608687  .00002131  00000-0  15191-3 0  9996,2 49444  53.2164 285.6568 0001548  78.6941 281.4225 15.08847691128454,6917.857,95.437,540.793,538.651,0.0
49444.0,STARLINK-3126,PAYLOAD,2024-03-01 15:14:00,15.08841879,0.0001525,53.2163,282.3868,79.0051,281.1113,4.4884e-05,4.26e-06,0.0,0 STARLINK-3126,1 49444U 21104AN  24061.63472799  .00000426  00000-0  44884-4 0  9997,2 49444  53.2163 282.3868 0001525  79.0051 281.1113 15.08841879127490,6917.875,95.437,540.795,538.685,0.0
49444.0,STARLINK-3126,PAYLOAD,2024-03-01 21:35:32,15.0884826,0.0001468,53.2159,281.196,75.8739,284.2416,7.9254e-05,9.74e-06,0.0,0 STARLINK-3126,1 49444U 21104AN  24061.89968455  .00000974  00000-0  79254-4 0  9991,2 49444  53.2159 281.1960 0001468  75.8739 284.2416 15.08848260127534,6917.855,95.437,540.736,538.705,0.0
49444.0,STARLINK-3126,PAYLOAD,2024-03-02 19:50:57,15.08839605,0.0001479,53.2168,277.0373,84.889,275.2271,5.5665e-05,5.98e-06,0.0,0 STARLINK-3126,1 49444U 21104AN  24062.82704895  .00000598  00000-0  55665-4 0  9993,2 49444  53.2168 277.0373 0001479  84.8890 275.2271 15.08839605128742,6917.882,95.438,540.77,538.723,0.0
49444.0,STARLINK-3126,PAYLOAD,2024-03-03 06:58:38,15.08840551,0.0001436,53.2162,274.9539,83.6407,276.4749,5.0709e-05,5.19e-06,0.0,0 STARLINK-3126,1 49444U 21104AN  24063.29072852  .00000519  00000-0  50709-4 0  9993,2 49444  53.2162 274.9539 0001436  83.6407 276.4749 15.08840551127744,6917.879,95.438,540.737,538.75,0.0
49444.0,STARLINK-3126,PAYLOAD,2024-03-03 21:17:07,15.08841869,0.0001487,53.2175,272.2793,89.82,270.2962,5.4675e-05,5.82e-06,0.0,0 STARLINK-3126,1 49444U 21104AN  24063.88689314  .00000582  00000-0  54675-4 0  9991,2 49444  53.2175 272.2793 0001487  89.8200 270.2962 15.08841869127838,6917.875,95.437,540.768,538.711,0.0
49444.0,STARLINK-3126,PAYLOAD,2024-03-03 22:52:30,15.08843339,0.0001534,53.2179,271.9823,91.1494,268.9674,6.6736e-05,7.74e-06,0.0,0 STARLINK-3126,1 49444U 21104AN  24063.95313201  .00000774  00000-0  66736-4 0  9992,2 49444  53.2179 271.9823 0001534  91.1494 268.9674 15.08843339128914,6917.87,95.437,540.796,538.674,0.0
49444.0,STARLINK-3126,PAYLOAD,2024-03-04 13:10:58,15.08845431,0.0001506,53.2163,269.302,98.2676,261.8486,0.00014025,1.945e-05,0.0,0 STARLINK-3126,1 49444U 21104AN  24064.54928811  .00001945  00000-0  14025-3 0  9991,2 49444  53.2163 269.3020 0001506  98.2676 261.8486 15.08845431127935,6917.864,95.437,540.771,538.687,0.0
49444.0,STARLINK-3126,PAYLOAD,2024-03-04 21:07:54,15.08849713,0.0001506,53.2164,267.8179,86.5315,273.5849,0.00060703,9.389e-05,0.0,0 STARLINK-3126,1 49444U 21104AN  24064.88048750  .00009389  00000-0  60703-3 0  9997,2 49444  53.2164 267.8179 0001506  86.5315 273.5849 15.08849713127989,6917.851,95.437,540.758,538.674,0.0
49444.0,STARLINK-3126,PAYLOAD,2024-03-05 13:01:45,15.08842693,0.0001429,53.2157,264.8436,81.5704,278.545,0.00018904,2.722e-05,0.0,0 STARLINK-3126,1 49444U 21104AN  24065.54289019  .00002722  00000-0  18904-3 0  9996,2 49444  53.2157 264.8436 0001429  81.5704 278.5450 15.08842693128080,6917.872,95.437,540.726,538.749,0.0
49444.0,STARLINK-3126,PAYLOAD,2024-03-05 19:23:18,15.08840154,0.000124,53.2149,263.6529,90.9413,269.1721,5.3319e-05,5.61e-06,0.0,0 STARLINK-3126,1 49444U 21104AN  24065.80784879  .00000561  00000-0  53319-4 0  9998,2 49444  53.2149 263.6529 0001240  90.9413 269.1721 15.08840154129193,6917.88,95.438,540.603,538.887,0.0
49444.0,STARLINK-3126,PAYLOAD,2024-03-06 12:52:33,15.08837945,0.0001256,53.2144,260.3826,92.4946,267.619,0.00034891,5.269e-05,0.0,0 STARLINK-3126,1 49444U 21104AN  24066.53649340  .00005269  00000-0  34891-3 0  9995,2 49444  53.2144 260.3826 0001256  92.4946 267.6190 15.08837945128238,6917.887,95.438,540.621,538.883,0.0
49444.0,STARLINK-3126,PAYLOAD,2024-03-07 12:43:20,15.08834685,0.0001441,53.2153,255.9207,97.727,262.3886,0.00014135,1.962e-05,0.0,0 STARLINK-3126,1 49444U 21104AN  24067.53009878  .00001962  00000-0  14135-3 0  9997,2 49444  53.2153 255.9207 0001441  97.7270 262.3886 15.08834685128383,6917.897,95.438,540.759,538.765,0.0
49444.0,STARLINK-3126,PAYLOAD,2024-03-08 12:34:07,15.08848058,0.0001446,53.2159,251.4598,99.7359,260.3797,0.00024907,3.679e-05,0.0,0 STARLINK-3126,1 49444U 21104AN  24068.52369438  .00003679  00000-0  24907-3 0  9993,2 49444  53.2159 251.4598 0001446  99.7359 260.3797 15.08848058129602,6917.856,95.437,540.721,538.72,0.0
49444.0,STARLINK-3126,PAYLOAD,2024-03-08 18:55:38,15.08869728,0.0001072,53.2156,250.2704,81.5443,278.567,0.00053812,8.294e-05,0.0,0 STARLINK-3126,1 49444U 21104AN  24068.78864262  .00008294  00000-0  53812-3 0  9991,2 49444  53.2156 250.2704 0001072  81.5443 278.5670 15.08869728129645,6917.79,95.436,540.396,538.913,0.0
49444.0,STARLINK-3126,PAYLOAD,2024-03-09 12:24:54,15.08828861,0.0001107,53.2149,246.9968,103.2302,256.8814,-0.00011873,-2.176e-05,0.0,0 STARLINK-3126,1 49444U 21104AN  24069.51729720 -.00002176  00000-0 -11873-3 0  9998,2 49444  53.2149 246.9968 0001107 103.2302 256.8814 15.08828861129750,6917.914,95.438,540.545,539.014,0.0
49444.0,STARLINK-3126,PAYLOAD,2024-03-09 18:46:26,15.08836852,0.0001407,53.2151,245.81,95.8061,264.3092,2.7688e-05,1.53e-06,0.0,0 STARLINK-3126,1 49444U 21104AN  24069.78225386  .00000153  00000-0  27688-4 0  9999,2 49444  53.2151 245.8100 0001407  95.8061 264.3092 15.08836852129795,6917.89,95.438,540.728,538.782,0.0
49444.0,STARLINK-3126,PAYLOAD,2024-03-10 04:18:45,15.08836651,0.0001357,53.2153,244.0273,97.1709,262.9437,-7.3031e-05,-1.45e-05,0.0,0 STARLINK-3126,1 49444U 21104AN  24070.17969390 -.00001450  00000-0 -73031-4 0  9990,2 49444  53.2153 244.0273 0001357  97.1709 262.9437 15.08836651128789,6917.891,95.438,540.694,538.817,0.0
49444.0,STARLINK-3126,PAYLOAD,2024-03-10 21:47:59,15.08839924,6.8e-05,53.2114,240.7527,47.0163,313.0886,-0.00018097,-3.167e-05,0.0,0 STARLINK-3126,1 49444U 21104AN  24070.90833143 -.00003167  00000-0 -18097-3 0  9994,2 49444  53.2114 240.7527 0000680  47.0163 313.0886 15.08839924128891,6917.881,95.438,540.216,539.275,0.0
49444.0,STARLINK-3126,PAYLOAD,2024-03-11 04:09:32,15.08840536,8.17e-05,53.2146,239.5642,57.3323,302.7748,-7.0028e-05,-1.402e-05,0.0,0 STARLINK-3126,1 49444U 21104AN  24071.17329246 -.00001402  00000-0 -70028-4 0  9991,2 49444  53.2146 239.5642 0000817  57.3323 302.7748 15.08840536130003,6917.879,95.438,540.309,539.179,0.0
